IRIDIUM 171             
1 43929U 19002H   23331.56555768  .00000535  00000+0  18388-3 0  9991
2 43929  86.4003  23.5435 0002265  91.4019 268.7436 14.34223253255288
IRIDIUM 170             
1 43930U 19002J   23331.58021576  .00001963  00000+0  30730-3 0  9991
2 43930  86.6126  23.3889 0002494  95.1152 265.0350 14.72262917262041
IRIDIUM 167             
1 43931U 19002K   23331.55919151  .00000535  00000+0  18390-3 0  9996
2 43931  86.3995  23.3576 0002310  92.7962 267.3499 14.34222973255288
IRIDIUM 181             
1 56726U 23068S   23331.35615072  .00000839  00000+0  24189-3 0  9992
2 56726  86.8641  67.3284 0003184  87.9142 272.2424 14.43583153 27872
IRIDIUM 177             
1 56727U 23068T   23331.28507926  .00002959  00000+0  38564-3 0  9990
2 56727  86.2005  51.6807 0002188  93.2971 266.8501 14.80257259 28367
IRIDIUM 174             
1 56728U 23068U   23331.61762689  .00003168  00000+0  41315-3 0  9998
2 56728  86.2010  51.6101 0002161  99.3032 260.8434 14.80261300 28414
IRIDIUM 178             
1 56729U 23068V   23331.27428732  .00003010  00000+0  39240-3 0  9999
2 56729  86.5807  59.6188 0002116  90.7226 269.4238 14.80262788 28367
IRIDIUM 179             
1 56730U 23068W   23331.26884033  .00003094  00000+0  40344-3 0  9999
2 56730  86.6817  61.1996 0002104 100.2341 259.9118 14.80265330 28365
